{"type": "FeatureCollection", "features": [ {"type": "Feature", "properties": {"norad_id": 38146, "name": "FENGYUN 1C DEB", "group": "fengyun-1c-debris", "lat": -23.134053425312057, "lon": 87.10836115148493, "alt_km": 685.4237575849584, "timestamp": "2025-12-26T12:57:39.562598+00:00", "meta": {"OBJECT_NAME": "FENGYUN 1C DEB", "OBJECT_ID": "1999-025EQT", "EPOCH": "2025-12-25T12:25:53.891040", "MEAN_MOTION": 14.59352927, "ECCENTRICITY": 0.0201846, "INCLINATION": 99.4818, "RA_OF_ASC_NODE": 81.8467, "ARG_OF_PERICENTER": 64.7401, "MEAN_ANOMALY": 307.702, "EPHEMERIS_TYPE": 0, "CLASSIFICATION_TYPE": "U", "NORAD_CAT_ID": 38146, "ELEMENT_SET_NO": 999, "REV_AT_EPOCH": 32066, "BSTAR": 0.00075321, "MEAN_MOTION_DOT": 4.671e-05, "MEAN_MOTION_DDOT": 0}, "tle": {"line1": "1 38146U 99025EQT 25359.51798485  .00004671  00000+0  75321-3 0  9996", "line2": "2 38146  99.4818  81.8467 0201846  64.7401 307.7020 14.59352927320663"}}, "geometry": {"type": "Point", "coordinates": [87.10836115148493, -23.134053425312057]}}, {"type": "Feature", "properties": {"norad_id": 38147, "name": "FENGYUN 1C DEB", "group": "fengyun-1c-debris", "lat": 14.235944450579462, "lon": -163.4246436216057, "alt_km": 816.7755419550558, "timestamp": "2025-12-26T12:57:39.562609+00:00", "meta": {"OBJECT_NAME": "FENGYUN 1C DEB", "OBJECT_ID": "1999-025EQU", "EPOCH": "2025-12-24T06:11:51.590400", "MEAN_MOTION": 14.23473632, "ECCENTRICITY": 0.00496347, "INCLINATION": 98.5575, "RA_OF_ASC_NODE": 12.1669, "ARG_OF_PERICENTER": 266.0478, "MEAN_ANOMALY": 93.5026, "EPHEMERIS_TYPE": 0, "CLASSIFICATION_TYPE": "U", "NORAD_CAT_ID": 38147, "ELEMENT_SET_NO": 999, "REV_AT_EPOCH": 60551, "BSTAR": 0.0005418078, "MEAN_MOTION_DOT": 1.204e-05, "MEAN_MOTION_DDOT": 0}, "tle": {"line1": "1 38147U 99025EQU 25358.25823600  .00001204  00000+0  54181-3 0  9995", "line2": "2 38147  98.5575  12.1669 0049634 266.0478  93.5026 14.23473632605515"}}, "geometry": {"type": "Point", "coordinates": [-163.4246436216057, 14.235944450579462]}}, {"type": "Feature", "properties": {"norad_id": 38149, "name": "FENGYUN 1C DEB", "group": "fengyun-1c-debris", "lat": 67.52480825260275, "lon": -28.67587838654345, "alt_km": 763.6362319896525, "timestamp": "2025-12-26T12:57:39.562618+00:00", "meta": {"OBJECT_NAME": "FENGYUN 1C DEB", "OBJECT_ID": "1999-025EQW", "EPOCH": "2025-12-24T16:51:08.815968", "MEAN_MOTION": 14.25930229, "ECCENTRICITY": 0.00785452, "INCLINATION": 98.3575, "RA_OF_ASC_NODE": 350.3849, "ARG_OF_PERICENTER": 126.3504, "MEAN_ANOMALY": 234.4959, "EPHEMERIS_TYPE": 0, "CLASSIFICATION_TYPE": "U", "NORAD_CAT_ID": 38149, "ELEMENT_SET_NO": 999, "REV_AT_EPOCH": 70658, "BSTAR": 0.0001943926, "MEAN_MOTION_DOT": 4.38e-06, "MEAN_MOTION_DDOT": 0}, "tle": {"line1": "1 38149U 99025EQW 25358.70218537  .00000438  00000+0  19439-3 0  9999", "line2": "2 38149  98.3575 350.3849 0078545 126.3504 234.4959 14.25930229706585"}}, "geometry": {"type": "Point", "coordinates": [-28.67587838654345, 67.52480825260275]}}, {"type": "Feature", "properties": {"norad_id": 38155, "name": "FENGYUN 1C DEB", "group": "fengyun-1c-debris", "lat": -33.05218851733274, "lon": -90.07939964486955, "alt_km": 848.5904173810095, "timestamp": "2025-12-26T12:57:39.562628+00:00", "meta": {"OBJECT_NAME": "FENGYUN 1C DEB", "OBJECT_ID": "1999-025ERC", "EPOCH": "2025-12-18T23:08:16.383264", "MEAN_MOTION": 14.25112386, "ECCENTRICITY": 0.00979258, "INCLINATION": 98.4473, "RA_OF_ASC_NODE": 257.0769, "ARG_OF_PERICENTER": 108.7402, "MEAN_ANOMALY": 252.4435, "EPHEMERIS_TYPE": 0, "CLASSIFICATION_TYPE": "U", "NORAD_CAT_ID": 38155, "ELEMENT_SET_NO": 999, "REV_AT_EPOCH": 63864, "BSTAR": 0.0016814228, "MEAN_MOTION_DOT": 4.107e-05, "MEAN_MOTION_DDOT": 0}, "tle": {"line1": "1 38155U 99025ERC 25352.96407851  .00004107  00000+0  16814-2 0  9997", "line2": "2 38155  98.4473 257.0769 0097925 108.7402 252.4435 14.25112386638644"}}, "geometry": {"type": "Point", "coordinates": [-90.07939964486955, -33.05218851733274]}}, {"type": "Feature", "properties": {"norad_id": 38157, "name": "FENGYUN 1C DEB", "group": "fengyun-1c-debris", "lat": -35.21246194917656, "lon": 81.90869379370619, "alt_km": 974.5758230925449, "timestamp": "2025-12-26T12:57:39.562639+00:00", "meta": {"OBJECT_NAME": "FENGYUN 1C DEB", "OBJECT_ID": "1999-025ERE", "EPOCH": "2025-12-22T04:56:52.679328", "MEAN_MOTION": 14.21771497, "ECCENTRICITY": 0.02743434, "INCLINATION": 99.6568, "RA_OF_ASC_NODE": 264.065, "ARG_OF_PERICENTER": 87.817, "MEAN_ANOMALY": 275.4389, "EPHEMERIS_TYPE": 0, "CLASSIFICATION_TYPE": "U", "NORAD_CAT_ID": 38157, "ELEMENT_SET_NO": 999, "REV_AT_EPOCH": 76382, "BSTAR": 0.00067847723, "MEAN_MOTION_DOT": 2.134e-05, "MEAN_MOTION_DDOT": 0}, "tle": {"line1": "1 38157U 99025ERE 25356.20616527  .00002134  00000+0  67848-3 0  9994", "line2": "2 38157  99.6568 264.0650 0274343  87.8170 275.4389 14.21771497763823"}}, "geometry": {"type": "Point", "coordinates": [81.90869379370619, -35.21246194917656]}}, {"type": "Feature", "properties": {"norad_id": 38159, "name": "FENGYUN 1C DEB", "group": "fengyun-1c-debris", "lat": 79.28040003424573, "lon": 132.63980337242407, "alt_km": 910.8657267546123, "timestamp": "2025-12-26T12:57:39.562649+00:00", "meta": {"OBJECT_NAME": "FENGYUN 1C DEB", "OBJECT_ID": "1999-025ERG", "EPOCH": "2025-12-04T22:05:20.152032", "MEAN_MOTION": 14.03448484, "ECCENTRICITY": 0.005704, "INCLINATION": 99.3156, "RA_OF_ASC_NODE": 230.39, "ARG_OF_PERICENTER": 2.347, "MEAN_ANOMALY": 357.7952, "EPHEMERIS_TYPE": 0, "CLASSIFICATION_TYPE": "U", "NORAD_CAT_ID": 38159, "ELEMENT_SET_NO": 999, "REV_AT_EPOCH": 83002, "BSTAR": 0.0010527, "MEAN_MOTION_DOT": 1.625e-05, "MEAN_MOTION_DDOT": 0}, "tle": {"line1": "1 38159U 99025ERG 25338.92037213  .00001625  00000+0  10527-2 0  9999", "line2": "2 38159  99.3156 230.3900 0057040   2.3470 357.7952 14.03448484830021"}}, "geometry": {"type": "Point", "coordinates": [132.63980337242407, 79.28040003424573]}}, {"type": "Feature", "properties": {"norad_id": 38163, "name": "FENGYUN 1C DEB", "group": "fengyun-1c-debris", "lat": 43.73997408863883, "lon": -133.9761501025297, "alt_km": 848.8303401857402, "timestamp": "2025-12-26T12:57:39.562659+00:00", "meta": {"OBJECT_NAME": "FENGYUN 1C DEB", "OBJECT_ID": "1999-025ERL", "EPOCH": "2025-12-24T07:21:56.877984", "MEAN_MOTION": 14.05946513, "ECCENTRICITY": 0.00764665, "INCLINATION": 99.1277, "RA_OF_ASC_NODE": 34.9241, "ARG_OF_PERICENTER": 210.1825, "MEAN_ANOMALY": 149.4926, "EPHEMERIS_TYPE": 0, "CLASSIFICATION_TYPE": "U", "NORAD_CAT_ID": 38163, "ELEMENT_SET_NO": 999, "REV_AT_EPOCH": 24704, "BSTAR": 0.00077703552, "MEAN_MOTION_DOT": 1.261e-05, "MEAN_MOTION_DDOT": 0}, "tle": {"line1": "1 38163U 99025ERL 25358.30690831  .00001261  00000+0  77704-3 0  9996", "line2": "2 38163  99.1277  34.9241 0076466 210.1825 149.4926 14.05946513247049"}}, "geometry": {"type": "Point", "coordinates": [-133.9761501025297, 43.73997408863883]}}, {"type": "Feature", "properties": {"norad_id": 38166, "name": "FENGYUN 1C DEB", "group": "fengyun-1c-debris", "lat": -1.6383011122068225, "lon": -76.03291372969257, "alt_km": 828.2048238449115, "timestamp": "2025-12-26T12:57:39.562670+00:00", "meta": {"OBJECT_NAME": "FENGYUN 1C DEB", "OBJECT_ID": "1999-025ERP", "EPOCH": "2025-12-25T17:39:29.269152", "MEAN_MOTION": 14.31108062, "ECCENTRICITY": 0.00517597, "INCLINATION": 99.0777, "RA_OF_ASC_NODE": 103.3893, "ARG_OF_PERICENTER": 5.2769, "MEAN_ANOMALY": 354.8948, "EPHEMERIS_TYPE": 0, "CLASSIFICATION_TYPE": "U", "NORAD_CAT_ID": 38166, "ELEMENT_SET_NO": 999, "REV_AT_EPOCH": 63958, "BSTAR": 0.0026339768, "MEAN_MOTION_DOT": 7.006e-05, "MEAN_MOTION_DDOT": 0}, "tle": {"line1": "1 38166U 99025ERP 25359.73575543  .00007006  00000+0  26340-2 0  9991", "line2": "2 38166  99.0777 103.3893 0051759   5.2769 354.8948 14.31108062639586"}}, "geometry": {"type": "Point", "coordinates": [-76.03291372969257, -1.6383011122068225]}}, {"type": "Feature", "properties": {"norad_id": 38169, "name": "FENGYUN 1C DEB", "group": "fengyun-1c-debris", "lat": 5.7409982127395365, "lon": 157.07895560048325, "alt_km": 676.5674801133891, "timestamp": "2025-12-26T12:57:39.562680+00:00", "meta": {"OBJECT_NAME": "FENGYUN 1C DEB", "OBJECT_ID": "1999-025ERS", "EPOCH": "2025-12-17T04:37:40.598400", "MEAN_MOTION": 14.71570377, "ECCENTRICITY": 0.00320132, "INCLINATION": 98.9779, "RA_OF_ASC_NODE": 325.865, "ARG_OF_PERICENTER": 54.7995, "MEAN_ANOMALY": 305.6199, "EPHEMERIS_TYPE": 0, "CLASSIFICATION_TYPE": "U", "NORAD_CAT_ID": 38169, "ELEMENT_SET_NO": 999, "REV_AT_EPOCH": 61334, "BSTAR": 0.002130707, "MEAN_MOTION_DOT": 0.00013312, "MEAN_MOTION_DDOT": 0}, "tle": {"line1": "1 38169U 99025ERS 25351.19283100  .00013312  00000+0  21307-2 0  9996", "line2": "2 38169  98.9779 325.8650 0032013  54.7995 305.6199 14.71570377613347"}}, "geometry": {"type": "Point", "coordinates": [157.07895560048325, 5.7409982127395365]}}, {"type": "Feature", "properties": {"norad_id": 38173, "name": "FENGYUN 1C DEB", "group": "fengyun-1c-debris", "lat": -40.66588487200441, "lon": 73.5722182083523, "alt_km": 873.6216890861251, "timestamp": "2025-12-26T12:57:39.562690+00:00", "meta": {"OBJECT_NAME": "FENGYUN 1C DEB", "OBJECT_ID": "1999-025ERW", "EPOCH": "2025-12-25T22:34:52.894272", "MEAN_MOTION": 14.372448, "ECCENTRICITY": 0.016339, "INCLINATION": 98.9989, "RA_OF_ASC_NODE": 260.77, "ARG_OF_PERICENTER": 74.007, "MEAN_ANOMALY": 287.9045, "EPHEMERIS_TYPE": 0, "CLASSIFICATION_TYPE": "U", "NORAD_CAT_ID": 38173, "ELEMENT_SET_NO": 999, "REV_AT_EPOCH": 60833, "BSTAR": 0.00095573, "MEAN_MOTION_DOT": 3.27e-05, "MEAN_MOTION_DDOT": 0}, "tle": {"line1": "1 38173U 99025ERW 25359.94088998  .00003270  00000+0  95573-3 0  9999", "line2": "2 38173  98.9989 260.7700 0163390  74.0070 287.9045 14.37244800608336"}}, "geometry": {"type": "Point", "coordinates": [73.5722182083523, -40.66588487200441]}}]}